{
  "norad_id": 64750,
  "name": "STARLINK-34531",
  "history": [
    {
      "epoch": "2026-03-28T07:22:35.802048Z",
      "apogee_km": 475.8338029810684,
      "perigee_km": 474.5134441563314,
      "latitude_deg": 2.66918770879801e-05,
      "longitude_deg": 158.08946231568044,
      "height_km": 475.93545730680626,
      "semi_major_axis_km": 6853.310623568699,
      "eccentricity": 9.633e-05,
      "inclination_deg": 53.1582,
      "raan_deg": 94.4683,
      "arg_perigee_deg": 78.0679,
      "mean_anomaly_deg": 282.043,
      "mean_motion_rev_day": 15.30213881
    },
    {
      "epoch": "2026-03-29T05:19:20.279136Z",
      "apogee_km": 476.42399951086554,
      "perigee_km": 473.88142902687287,
      "latitude_deg": 1.0759749642056958e-05,
      "longitude_deg": -176.24464829667744,
      "height_km": 477.00261822123025,
      "semi_major_axis_km": 6853.289714268869,
      "eccentricity": 0.0001855,
      "inclination_deg": 53.1591,
      "raan_deg": 90.2208,
      "arg_perigee_deg": 138.4827,
      "mean_anomaly_deg": 221.6315,
      "mean_motion_rev_day": 15.30220884
    },
    {
      "epoch": "2026-03-30T04:50:09.709728Z",
      "apogee_km": 476.2209481436066,
      "perigee_km": 474.29377364932225,
      "latitude_deg": 1.2409271714115655e-05,
      "longitude_deg": -174.46738184603774,
      "height_km": 475.9193028477702,
      "semi_major_axis_km": 6853.394360896465,
      "eccentricity": 0.0001406,
      "inclination_deg": 53.1583,
      "raan_deg": 85.6697,
      "arg_perigee_deg": 75.8341,
      "mean_anomaly_deg": 284.2816,
      "mean_motion_rev_day": 15.30185836
    }
  ]
}